[{"OBJECT_NAME":"ONEWEB-0056","OBJECT_ID":"2020-008AE","EPOCH":"2026-04-03T22:05:30.170976","MEAN_MOTION":13.10377044,"ECCENTRICITY":0.0001772,"INCLINATION":87.8827,"RA_OF_ASC_NODE":51.0401,"ARG_OF_PERICENTER":76.154,"MEAN_ANOMALY":283.9784,"EPHEMERIS_TYPE":0,"CLASSIFICATION_TYPE":"U","NORAD_CAT_ID":45159,"ELEMENT_SET_NO":999,"REV_AT_EPOCH":29845,"BSTAR":-0.0007836,"MEAN_MOTION_DOT":-2.61e-06,"MEAN_MOTION_DDOT":0.0},{"OBJECT_NAME":"ONEWEB-0057","OBJECT_ID":"2020-008AF","EPOCH":"2026-04-04T05:36:16.693056","MEAN_MOTION":13.10379513,"ECCENTRICITY":0.000156,"INCLINATION":87.8829,"RA_OF_ASC_NODE":50.9867,"ARG_OF_PERICENTER":92.8878,"MEAN_ANOMALY":267.2428,"EPHEMERIS_TYPE":0,"CLASSIFICATION_TYPE":"U","NORAD_CAT_ID":45160,"ELEMENT_SET_NO":999,"REV_AT_EPOCH":29866,"BSTAR":0.00043163,"MEAN_MOTION_DOT":1.63e-06,"MEAN_MOTION_DDOT":0.0},{"OBJECT_NAME":"ONEWEB-0058","OBJECT_ID":"2020-008AG","EPOCH":"2026-04-03T21:57:19.413792","MEAN_MOTION":13.10373005,"ECCENTRICITY":0.0002117,"INCLINATION":87.8824,"RA_OF_ASC_NODE":51.059,"ARG_OF_PERICENTER":82.1035,"MEAN_ANOMALY":278.0333,"EPHEMERIS_TYPE":0,"CLASSIFICATION_TYPE":"U","NORAD_CAT_ID":45161,"ELEMENT_SET_NO":999,"REV_AT_EPOCH":29869,"BSTAR":-0.0013879,"MEAN_MOTION_DOT":-4.72e-06,"MEAN_MOTION_DDOT":0.0},{"OBJECT_NAME":"ONEWEB-0059","OBJECT_ID":"2020-008AH","EPOCH":"2026-04-03T20:02:23.866080","MEAN_MOTION":13.10375966,"ECCENTRICITY":0.0001932,"INCLINATION":87.8818,"RA_OF_ASC_NODE":51.0753,"ARG_OF_PERICENTER":86.822,"MEAN_ANOMALY":273.3129,"EPHEMERIS_TYPE":0,"CLASSIFICATION_TYPE":"U","NORAD_CAT_ID":45162,"ELEMENT_SET_NO":999,"REV_AT_EPOCH":29858,"BSTAR":-0.0016023,"MEAN_MOTION_DOT":-5.47e-06,"MEAN_MOTION_DDOT":0.0},{"OBJECT_NAME":"ONEWEB-0062","OBJECT_ID":"2020-008AJ","EPOCH":"2026-04-04T05:49:15.556224","MEAN_MOTION":13.10373897,"ECCENTRICITY":0.0002317,"INCLINATION":87.8824,"RA_OF_ASC_NODE":50.9776,"ARG_OF_PERICENTER":77.3664,"MEAN_ANOMALY":282.7723,"EPHEMERIS_TYPE":0,"CLASSIFICATION_TYPE":"U","NORAD_CAT_ID":45163,"ELEMENT_SET_NO":999,"REV_AT_EPOCH":29850,"BSTAR":0.0015841,"MEAN_MOTION_DOT":5.66e-06,"MEAN_MOTION_DDOT":0.0},{"OBJECT_NAME":"ONEWEB-0065","OBJECT_ID":"2020-008AK","EPOCH":"2026-04-04T06:33:14.899104","MEAN_MOTION":13.10369765,"ECCENTRICITY":0.0001495,"INCLINATION":87.8816,"RA_OF_ASC_NODE":50.9795,"ARG_OF_PERICENTER":81.647,"MEAN_ANOMALY":278.4826,"EPHEMERIS_TYPE":0,"CLASSIFICATION_TYPE":"U","NORAD_CAT_ID":45164,"ELEMENT_SET_NO":999,"REV_AT_EPOCH":29820,"BSTAR":-0.00048731,"MEAN_MOTION_DOT":-1.57e-06,"MEAN_MOTION_DDOT":0.0},{"OBJECT_NAME":"ONEWEB-0066","OBJECT_ID":"2020-020A","EPOCH":"2026-04-04T05:09:47.211264","MEAN_MOTION":13.11417064,"ECCENTRICITY":0.000189,"INCLINATION":87.8915,"RA_OF_ASC_NODE":35.7716,"ARG_OF_PERICENTER":82.9332,"MEAN_ANOMALY":277.2011,"EPHEMERIS_TYPE":0,"CLASSIFICATION_TYPE":"U","NORAD_CAT_ID":45424,"ELEMENT_SET_NO":999,"REV_AT_EPOCH":29298,"BSTAR":0.0015427,"MEAN_MOTION_DOT":5.59e-06,"MEAN_MOTION_DDOT":0.0},{"OBJECT_NAME":"ONEWEB-0067","OBJECT_ID":"2020-020B","EPOCH":"2026-04-04T06:04:16.909536","MEAN_MOTION":13.11259304,"ECCENTRICITY":0.0001652,"INCLINATION":87.8927,"RA_OF_ASC_NODE":35.6755,"ARG_OF_PERICENTER":85.5063,"MEAN_ANOMALY":274.6254,"EPHEMERIS_TYPE":0,"CLASSIFICATION_TYPE":"U","NORAD_CAT_ID":45425,"ELEMENT_SET_NO":999,"REV_AT_EPOCH":29304,"BSTAR":-0.0012770000000000001,"MEAN_MOTION_DOT":-4.39e-06,"MEAN_MOTION_DDOT":0.0},{"OBJECT_NAME":"ONEWEB-0080","OBJECT_ID":"2020-020C","EPOCH":"2026-04-04T06:03:37.120608","MEAN_MOTION":13.1139037,"ECCENTRICITY":0.0002104,"INCLINATION":87.8912,"RA_OF_ASC_NODE":35.757,"ARG_OF_PERICENTER":74.4145,"MEAN_ANOMALY":285.7215,"EPHEMERIS_TYPE":0,"CLASSIFICATION_TYPE":"U","NORAD_CAT_ID":45426,"ELEMENT_SET_NO":999,"REV_AT_EPOCH":29301,"BSTAR":-0.0098537,"MEAN_MOTION_DOT":-3.477e-05,"MEAN_MOTION_DDOT":0.0},{"OBJECT_NAME":"ONEWEB-0090","OBJECT_ID":"2020-020D","EPOCH":"2026-04-04T06:45:12.766464","MEAN_MOTION":13.11418732,"ECCENTRICITY":0.0001891,"INCLINATION":87.8911,"RA_OF_ASC_NODE":35.7564,"ARG_OF_PERICENTER":78.4213,"MEAN_ANOMALY":281.7127,"EPHEMERIS_TYPE":0,"CLASSIFICATION_TYPE":"U","NORAD_CAT_ID":45427,"ELEMENT_SET_NO":999,"REV_AT_EPOCH":29298,"BSTAR":0.0015584000000000001,"MEAN_MOTION_DOT":5.65e-06,"MEAN_MOTION_DDOT":0.0},{"OBJECT_NAME":"ONEWEB-0061","OBJECT_ID":"2020-020E","EPOCH":"2026-04-04T05:41:19.085280","MEAN_MOTION":13.11415605,"ECCENTRICITY":0.0001882,"INCLINATION":87.891,"RA_OF_ASC_NODE":35.7512,"ARG_OF_PERICENTER":79.4521,"MEAN_ANOMALY":280.6819,"EPHEMERIS_TYPE":0,"CLASSIFICATION_TYPE":"U","NORAD_CAT_ID":45428,"ELEMENT_SET_NO":999,"REV_AT_EPOCH":29293,"BSTAR":-0.0008974100000000001,"MEAN_MOTION_DOT":-3.05e-06,"MEAN_MOTION_DDOT":0.0},{"OBJECT_NAME":"ONEWEB-0081","OBJECT_ID":"2020-020F","EPOCH":"2026-04-04T05:14:41.278848","MEAN_MOTION":13.11413682,"ECCENTRICITY":0.0001767,"INCLINATION":87.8905,"RA_OF_ASC_NODE":35.7697,"ARG_OF_PERICENTER":85.4983,"MEAN_ANOMALY":274.6347,"EPHEMERIS_TYPE":0,"CLASSIFICATION_TYPE":"U","NORAD_CAT_ID":45429,"ELEMENT_SET_NO":999,"REV_AT_EPOCH":29304,"BSTAR":0.001128,"MEAN_MOTION_DOT":4.12e-06,"MEAN_MOTION_DDOT":0.0},{"OBJECT_NAME":"ONEWEB-0069","OBJECT_ID":"2020-020G","EPOCH":"2026-04-04T06:48:40.502304","MEAN_MOTION":13.11416009,"ECCENTRICITY":0.0001818,"INCLINATION":87.891,"RA_OF_ASC_NODE":35.7511,"ARG_OF_PERICENTER":82.0965,"MEAN_ANOMALY":278.0369,"EPHEMERIS_TYPE":0,"CLASSIFICATION_TYPE":"U","NORAD_CAT_ID":45430,"ELEMENT_SET_NO":999,"REV_AT_EPOCH":29298,"BSTAR":0.0017544000000000001,"MEAN_MOTION_DOT":6.34e-06,"MEAN_MOTION_DDOT":0.0},{"OBJECT_NAME":"ONEWEB-0031","OBJECT_ID":"2020-020H","EPOCH":"2026-04-04T06:08:21.685056","MEAN_MOTION":13.11419747,"ECCENTRICITY":0.0001998,"INCLINATION":87.8904,"RA_OF_ASC_NODE":35.7728,"ARG_OF_PERICENTER":75.9939,"MEAN_ANOMALY":284.1411,"EPHEMERIS_TYPE":0,"CLASSIFICATION_TYPE":"U","NORAD_CAT_ID":45431,"ELEMENT_SET_NO":999,"REV_AT_EPOCH":29296,"BSTAR":-0.0009681300000000001,"MEAN_MOTION_DOT":-3.3e-06,"MEAN_MOTION_DDOT":0.0},{"OBJECT_NAME":"ONEWEB-0027","OBJECT_ID":"2020-020J","EPOCH":"2026-04-04T06:26:03.458976","MEAN_MOTION":13.17649811,"ECCENTRICITY":0.0001882,"INCLINATION":87.919,"RA_OF_ASC_NODE":20.5249,"ARG_OF_PERICENTER":67.0385,"MEAN_ANOMALY":293.0945,"EPHEMERIS_TYPE":0,"CLASSIFICATION_TYPE":"U","NORAD_CAT_ID":45432,"ELEMENT_SET_NO":999,"REV_AT_EPOCH":29662,"BSTAR":-0.00060461,"MEAN_MOTION_DOT":-2.22e-06,"MEAN_MOTION_DDOT":0.0},{"OBJECT_NAME":"ONEWEB-0064","OBJECT_ID":"2020-020K","EPOCH":"2026-04-04T06:05:55.133376","MEAN_MOTION":13.11419353,"ECCENTRICITY":0.0001939,"INCLINATION":87.8905,"RA_OF_ASC_NODE":35.7634,"ARG_OF_PERICENTER":74.7968,"MEAN_ANOMALY":285.3374,"EPHEMERIS_TYPE":0,"CLASSIFICATION_TYPE":"U","NORAD_CAT_ID":45433,"ELEMENT_SET_NO":999,"REV_AT_EPOCH":29299,"BSTAR":-0.0015523000000000002,"MEAN_MOTION_DOT":-5.37e-06,"MEAN_MOTION_DDOT":0.0}]