ONEWEB-0056             
1 45159U 20008AE  26093.92048809 -.00000261  00000+0 -78360-3 0  9991
2 45159  87.8827  51.0401 0001772  76.1540 283.9784 13.10377044298456
ONEWEB-0057             
1 45160U 20008AF  26094.23352654  .00000163  00000+0  43163-3 0  9996
2 45160  87.8829  50.9867 0001560  92.8878 267.2428 13.10379513298664
ONEWEB-0058             
1 45161U 20008AG  26093.91480803 -.00000472  00000+0 -13879-2 0  9994
2 45161  87.8824  51.0590 0002117  82.1035 278.0333 13.10373005298699
ONEWEB-0059             
1 45162U 20008AH  26093.83499845 -.00000547  00000+0 -16023-2 0  9999
2 45162  87.8818  51.0753 0001932  86.8220 273.3129 13.10375966298582
ONEWEB-0062             
1 45163U 20008AJ  26094.24254116  .00000566  00000+0  15841-2 0  9992
2 45163  87.8824  50.9776 0002317  77.3664 282.7723 13.10373897298505
ONEWEB-0065             
1 45164U 20008AK  26094.27308911 -.00000157  00000+0 -48731-3 0  9992
2 45164  87.8816  50.9795 0001495  81.6470 278.4826 13.10369765298209
ONEWEB-0066             
1 45424U 20020A   26094.21512976  .00000559  00000+0  15427-2 0  9996
2 45424  87.8915  35.7716 0001890  82.9332 277.2011 13.11417064292981
ONEWEB-0067             
1 45425U 20020B   26094.25297349 -.00000439  00000+0 -12770-2 0  9992
2 45425  87.8927  35.6755 0001652  85.5063 274.6254 13.11259304293042
ONEWEB-0080             
1 45426U 20020C   26094.25251297 -.00003477  00000+0 -98537-2 0  9995
2 45426  87.8912  35.7570 0002104  74.4145 285.7215 13.11390370293010
ONEWEB-0090             
1 45427U 20020D   26094.28139776  .00000565  00000+0  15584-2 0  9990
2 45427  87.8911  35.7564 0001891  78.4213 281.7127 13.11418732292981
ONEWEB-0061             
1 45428U 20020E   26094.23702645 -.00000305  00000+0 -89741-3 0  9998
2 45428  87.8910  35.7512 0001882  79.4521 280.6819 13.11415605292934
ONEWEB-0081             
1 45429U 20020F   26094.21853332  .00000412  00000+0  11280-2 0  9996
2 45429  87.8905  35.7697 0001767  85.4983 274.6347 13.11413682293049
ONEWEB-0069             
1 45430U 20020G   26094.28380211  .00000634  00000+0  17544-2 0  9991
2 45430  87.8910  35.7511 0001818  82.0965 278.0369 13.11416009292982
ONEWEB-0031             
1 45431U 20020H   26094.25580654 -.00000330  00000+0 -96813-3 0  9994
2 45431  87.8904  35.7728 0001998  75.9939 284.1411 13.11419747292963
ONEWEB-0027             
1 45432U 20020J   26094.26809559 -.00000222  00000+0 -60461-3 0  9994
2 45432  87.9190  20.5249 0001882  67.0385 293.0945 13.17649811296622
ONEWEB-0064             
1 45433U 20020K   26094.25411034 -.00000537  00000+0 -15523-2 0  9998
2 45433  87.8905  35.7634 0001939  74.7968 285.3374 13.11419353292993
